ELYSIUM STAR 2 & LFF    
1 43760U 18099C   24275.75217392  .00170694  00000+0  36565-2 0  9996
2 43760  97.5019 344.9923 0006079 238.1957 121.8700 15.44099103319563
